FLOCK 4G-14             
1 62667U 25009BL  26068.75869712  .00011310  00000+0  42676-3 0  9993
2 62667  97.4064 151.1836 0003006 318.3639  41.7371 15.27197201 63711
STARLINK-34106          
1 63907U 25095T   26068.31195457  .00030512  00000+0  11119-2 0  9998
2 63907  43.0031 178.0374 0006479 294.2372  65.7803 15.27617963 47729
