[{"OBJECT_NAME":"FLOCK 4G-14","OBJECT_ID":"2025-009BL","EPOCH":"2026-03-09T18:12:31.432032","MEAN_MOTION":15.27197201,"ECCENTRICITY":0.00030064,"INCLINATION":97.4064,"RA_OF_ASC_NODE":151.1836,"ARG_OF_PERICENTER":318.3639,"MEAN_ANOMALY":41.7371,"EPHEMERIS_TYPE":0,"CLASSIFICATION_TYPE":"U","NORAD_CAT_ID":62667,"ELEMENT_SET_NO":999,"REV_AT_EPOCH":6371,"BSTAR":0.00042675627,"MEAN_MOTION_DOT":0.0001131,"MEAN_MOTION_DDOT":0},{"OBJECT_NAME":"STARLINK-34106","OBJECT_ID":"2025-095T","EPOCH":"2026-03-09T07:29:12.874848","MEAN_MOTION":15.27617963,"ECCENTRICITY":0.0006479,"INCLINATION":43.0031,"RA_OF_ASC_NODE":178.0374,"ARG_OF_PERICENTER":294.2372,"MEAN_ANOMALY":65.7803,"EPHEMERIS_TYPE":0,"CLASSIFICATION_TYPE":"U","NORAD_CAT_ID":63907,"ELEMENT_SET_NO":999,"REV_AT_EPOCH":4772,"BSTAR":0.0011119022,"MEAN_MOTION_DOT":0.00030512,"MEAN_MOTION_DDOT":0}]
